STARLINK-36863          
1 67949U 26037T   26077.25002315 -.01924280  00000+0 -13065-1 0  9996
2 67949  42.9991 145.9594 0000927 265.5158 281.9042 15.77271172  4570
STARLINK-36887          
1 67950U 26037U   26077.25002315 -.01908055  00000+0 -22961-1 0  9995
2 67950  42.9998 146.3057 0001516 273.9127 134.6413 15.63166987  4570
STARLINK-36897          
1 67951U 26037V   26077.25002315 -.01909177  00000+0 -13563-1 0  9990
2 67951  42.9988 145.9495 0001147 254.7544 296.5647 15.76235014  4570
STARLINK-36381          
1 67952U 26037W   26075.57100050 -.00027192  00000+0 -12748-3 0  9992
2 67952  42.9982 156.1801 0001021 306.5215  53.5562 15.81938385  4341
STARLINK-36824          
1 67953U 26037X   26077.25002315 -.01913369  00000+0 -21208-1 0  9995
2 67953  42.9995 146.2055 0001283 280.6766 168.0709 15.65230427  4574
STARLINK-36869          
1 67954U 26037Y   26077.25002315 -.01912892  00000+0 -21382-1 0  9999
2 67954  42.9996 146.1909 0001286 281.8069 172.4180 15.65020402  4577
STARLINK-36872          
1 67955U 26037Z   26076.89461649  .00552137  00000+0  24590-2 0  9992
2 67955  42.9984 148.0361 0002898 328.4785  31.5912 15.82034569  4555
STARLINK-36918          
1 67956U 26037AA  26075.56799068  .00140757  00000+0  65764-3 0  9995
2 67956  42.9987 156.1542 0002265 256.0433 104.0187 15.82097144  4349
STARLINK-36829          
1 67957U 26037AB  26077.25002315 -.01958639  00000+0 -16644-1 0  9996
2 67957  42.9992 145.9849 0001049 269.4255 267.3433 15.71694572  4579
STARLINK-36799          
1 67958U 26037AC  26077.27193057 -.00656082  00000+0 -34672-2 0  9991
2 67958  42.9984 145.7035 0002373 211.5174 148.5555 15.81312841  4612
STARLINK-36834          
1 67959U 26037AD  26077.21539428 -.00722131  00000+0 -58151-2 0  9999
2 67959  42.9980 146.1432 0001802 266.1027  93.9635 15.72075567  4606
STARLINK-36841          
1 67960U 26037AE  26075.50320626  .00656337  00000+0  27816-2 0  9995
2 67960  42.9981 156.5268 0001894 354.5035   5.5816 15.82830893  4335
STARLINK-36912          
1 67961U 26038A   26077.25002315 -.02321633  00000+0 -22602-1 0  9992
2 67961  97.2849  87.9712 0001494  79.9952 290.8898 15.69837244  4572
STARLINK-36881          
1 67962U 26038B   26077.25002315 -.02317936  00000+0 -22215-1 0  9994
2 67962  97.2853  87.9754 0001349  82.8191 295.4481 15.70206963  4570
STARLINK-36357          
1 67963U 26038C   26077.25002315 -.02350126  00000+0 -27362-1 0  9991
2 67963  97.2843  87.9694 0001221  81.5847 279.9156 15.64906992  4574
STARLINK-36349          
1 67964U 26038D   26077.25002315 -.02353655  00000+0 -27354-1 0  9993
2 67964  97.2845  87.9661 0001266  80.5378 273.2881 15.64956392  4579
