[{"OBJECT_NAME":"STARLINK-36863","OBJECT_ID":"2026-037T","EPOCH":"2026-03-18T06:00:02.000160","MEAN_MOTION":15.77271172,"ECCENTRICITY":9.278e-5,"INCLINATION":42.9991,"RA_OF_ASC_NODE":145.9594,"ARG_OF_PERICENTER":265.5158,"MEAN_ANOMALY":281.9042,"EPHEMERIS_TYPE":0,"CLASSIFICATION_TYPE":"U","NORAD_CAT_ID":67949,"ELEMENT_SET_NO":999,"REV_AT_EPOCH":457,"BSTAR":-0.013065064,"MEAN_MOTION_DOT":-0.0192428,"MEAN_MOTION_DDOT":0},{"OBJECT_NAME":"STARLINK-36887","OBJECT_ID":"2026-037U","EPOCH":"2026-03-18T06:00:02.000160","MEAN_MOTION":15.63166987,"ECCENTRICITY":0.00015166,"INCLINATION":42.9998,"RA_OF_ASC_NODE":146.3057,"ARG_OF_PERICENTER":273.9127,"MEAN_ANOMALY":134.6413,"EPHEMERIS_TYPE":0,"CLASSIFICATION_TYPE":"U","NORAD_CAT_ID":67950,"ELEMENT_SET_NO":999,"REV_AT_EPOCH":457,"BSTAR":-0.022961284,"MEAN_MOTION_DOT":-0.01908055,"MEAN_MOTION_DDOT":0},{"OBJECT_NAME":"STARLINK-36897","OBJECT_ID":"2026-037V","EPOCH":"2026-03-18T06:00:02.000160","MEAN_MOTION":15.76235014,"ECCENTRICITY":0.00011476,"INCLINATION":42.9988,"RA_OF_ASC_NODE":145.9495,"ARG_OF_PERICENTER":254.7544,"MEAN_ANOMALY":296.5647,"EPHEMERIS_TYPE":0,"CLASSIFICATION_TYPE":"U","NORAD_CAT_ID":67951,"ELEMENT_SET_NO":999,"REV_AT_EPOCH":457,"BSTAR":-0.013562659,"MEAN_MOTION_DOT":-0.01909177,"MEAN_MOTION_DDOT":0},{"OBJECT_NAME":"STARLINK-36381","OBJECT_ID":"2026-037W","EPOCH":"2026-03-16T13:42:14.443200","MEAN_MOTION":15.81938385,"ECCENTRICITY":0.00010214,"INCLINATION":42.9982,"RA_OF_ASC_NODE":156.1801,"ARG_OF_PERICENTER":306.5215,"MEAN_ANOMALY":53.5562,"EPHEMERIS_TYPE":0,"CLASSIFICATION_TYPE":"U","NORAD_CAT_ID":67952,"ELEMENT_SET_NO":999,"REV_AT_EPOCH":434,"BSTAR":-0.00012748186,"MEAN_MOTION_DOT":-0.00027192,"MEAN_MOTION_DDOT":0},{"OBJECT_NAME":"STARLINK-36824","OBJECT_ID":"2026-037X","EPOCH":"2026-03-18T06:00:02.000160","MEAN_MOTION":15.65230427,"ECCENTRICITY":0.00012835,"INCLINATION":42.9995,"RA_OF_ASC_NODE":146.2055,"ARG_OF_PERICENTER":280.6766,"MEAN_ANOMALY":168.0709,"EPHEMERIS_TYPE":0,"CLASSIFICATION_TYPE":"U","NORAD_CAT_ID":67953,"ELEMENT_SET_NO":999,"REV_AT_EPOCH":457,"BSTAR":-0.021207608,"MEAN_MOTION_DOT":-0.01913369,"MEAN_MOTION_DDOT":0},{"OBJECT_NAME":"STARLINK-36869","OBJECT_ID":"2026-037Y","EPOCH":"2026-03-18T06:00:02.000160","MEAN_MOTION":15.65020402,"ECCENTRICITY":0.00012865,"INCLINATION":42.9996,"RA_OF_ASC_NODE":146.1909,"ARG_OF_PERICENTER":281.8069,"MEAN_ANOMALY":172.418,"EPHEMERIS_TYPE":0,"CLASSIFICATION_TYPE":"U","NORAD_CAT_ID":67954,"ELEMENT_SET_NO":999,"REV_AT_EPOCH":457,"BSTAR":-0.021382227,"MEAN_MOTION_DOT":-0.01912892,"MEAN_MOTION_DDOT":0},{"OBJECT_NAME":"STARLINK-36872","OBJECT_ID":"2026-037Z","EPOCH":"2026-03-17T21:28:14.864736","MEAN_MOTION":15.82034569,"ECCENTRICITY":0.00028981,"INCLINATION":42.9984,"RA_OF_ASC_NODE":148.0361,"ARG_OF_PERICENTER":328.4785,"MEAN_ANOMALY":31.5912,"EPHEMERIS_TYPE":0,"CLASSIFICATION_TYPE":"U","NORAD_CAT_ID":67955,"ELEMENT_SET_NO":999,"REV_AT_EPOCH":455,"BSTAR":0.0024590235,"MEAN_MOTION_DOT":0.00552137,"MEAN_MOTION_DDOT":0},{"OBJECT_NAME":"STARLINK-36918","OBJECT_ID":"2026-037AA","EPOCH":"2026-03-16T13:37:54.394752","MEAN_MOTION":15.82097144,"ECCENTRICITY":0.00022656,"INCLINATION":42.9987,"RA_OF_ASC_NODE":156.1542,"ARG_OF_PERICENTER":256.0433,"MEAN_ANOMALY":104.0187,"EPHEMERIS_TYPE":0,"CLASSIFICATION_TYPE":"U","NORAD_CAT_ID":67956,"ELEMENT_SET_NO":999,"REV_AT_EPOCH":434,"BSTAR":0.00065764367,"MEAN_MOTION_DOT":0.00140757,"MEAN_MOTION_DDOT":0},{"OBJECT_NAME":"STARLINK-36829","OBJECT_ID":"2026-037AB","EPOCH":"2026-03-18T06:00:02.000160","MEAN_MOTION":15.71694572,"ECCENTRICITY":0.0001049,"INCLINATION":42.9992,"RA_OF_ASC_NODE":145.9849,"ARG_OF_PERICENTER":269.4255,"MEAN_ANOMALY":267.3433,"EPHEMERIS_TYPE":0,"CLASSIFICATION_TYPE":"U","NORAD_CAT_ID":67957,"ELEMENT_SET_NO":999,"REV_AT_EPOCH":457,"BSTAR":-0.016644164,"MEAN_MOTION_DOT":-0.01958639,"MEAN_MOTION_DDOT":0},{"OBJECT_NAME":"STARLINK-36799","OBJECT_ID":"2026-037AC","EPOCH":"2026-03-18T06:31:34.801248","MEAN_MOTION":15.81312841,"ECCENTRICITY":0.00023739,"INCLINATION":42.9984,"RA_OF_ASC_NODE":145.7035,"ARG_OF_PERICENTER":211.5174,"MEAN_ANOMALY":148.5555,"EPHEMERIS_TYPE":0,"CLASSIFICATION_TYPE":"U","NORAD_CAT_ID":67958,"ELEMENT_SET_NO":999,"REV_AT_EPOCH":461,"BSTAR":-0.0034672089,"MEAN_MOTION_DOT":-0.00656082,"MEAN_MOTION_DDOT":0},{"OBJECT_NAME":"STARLINK-36834","OBJECT_ID":"2026-037AD","EPOCH":"2026-03-18T05:10:10.065792","MEAN_MOTION":15.72075567,"ECCENTRICITY":0.00018023,"INCLINATION":42.998,"RA_OF_ASC_NODE":146.1432,"ARG_OF_PERICENTER":266.1027,"MEAN_ANOMALY":93.9635,"EPHEMERIS_TYPE":0,"CLASSIFICATION_TYPE":"U","NORAD_CAT_ID":67959,"ELEMENT_SET_NO":999,"REV_AT_EPOCH":460,"BSTAR":-0.0058151354,"MEAN_MOTION_DOT":-0.00722131,"MEAN_MOTION_DDOT":0},{"OBJECT_NAME":"STARLINK-36841","OBJECT_ID":"2026-037AE","EPOCH":"2026-03-16T12:04:37.020864","MEAN_MOTION":15.82830893,"ECCENTRICITY":0.00018947,"INCLINATION":42.9981,"RA_OF_ASC_NODE":156.5268,"ARG_OF_PERICENTER":354.5035,"MEAN_ANOMALY":5.5816,"EPHEMERIS_TYPE":0,"CLASSIFICATION_TYPE":"U","NORAD_CAT_ID":67960,"ELEMENT_SET_NO":999,"REV_AT_EPOCH":433,"BSTAR":0.0027816077,"MEAN_MOTION_DOT":0.00656337,"MEAN_MOTION_DDOT":0},{"OBJECT_NAME":"STARLINK-36912","OBJECT_ID":"2026-038A","EPOCH":"2026-03-18T06:00:02.000160","MEAN_MOTION":15.69837244,"ECCENTRICITY":0.00014944,"INCLINATION":97.2849,"RA_OF_ASC_NODE":87.9712,"ARG_OF_PERICENTER":79.9952,"MEAN_ANOMALY":290.8898,"EPHEMERIS_TYPE":0,"CLASSIFICATION_TYPE":"U","NORAD_CAT_ID":67961,"ELEMENT_SET_NO":999,"REV_AT_EPOCH":457,"BSTAR":-0.022601582,"MEAN_MOTION_DOT":-0.02321633,"MEAN_MOTION_DDOT":0},{"OBJECT_NAME":"STARLINK-36881","OBJECT_ID":"2026-038B","EPOCH":"2026-03-18T06:00:02.000160","MEAN_MOTION":15.70206963,"ECCENTRICITY":0.00013496,"INCLINATION":97.2853,"RA_OF_ASC_NODE":87.9754,"ARG_OF_PERICENTER":82.8191,"MEAN_ANOMALY":295.4481,"EPHEMERIS_TYPE":0,"CLASSIFICATION_TYPE":"U","NORAD_CAT_ID":67962,"ELEMENT_SET_NO":999,"REV_AT_EPOCH":457,"BSTAR":-0.022214866,"MEAN_MOTION_DOT":-0.02317936,"MEAN_MOTION_DDOT":0},{"OBJECT_NAME":"STARLINK-36357","OBJECT_ID":"2026-038C","EPOCH":"2026-03-18T06:00:02.000160","MEAN_MOTION":15.64906992,"ECCENTRICITY":0.00012212,"INCLINATION":97.2843,"RA_OF_ASC_NODE":87.9694,"ARG_OF_PERICENTER":81.5847,"MEAN_ANOMALY":279.9156,"EPHEMERIS_TYPE":0,"CLASSIFICATION_TYPE":"U","NORAD_CAT_ID":67963,"ELEMENT_SET_NO":999,"REV_AT_EPOCH":457,"BSTAR":-0.027362358,"MEAN_MOTION_DOT":-0.02350126,"MEAN_MOTION_DDOT":0},{"OBJECT_NAME":"STARLINK-36349","OBJECT_ID":"2026-038D","EPOCH":"2026-03-18T06:00:02.000160","MEAN_MOTION":15.64956392,"ECCENTRICITY":0.00012661,"INCLINATION":97.2845,"RA_OF_ASC_NODE":87.9661,"ARG_OF_PERICENTER":80.5378,"MEAN_ANOMALY":273.2881,"EPHEMERIS_TYPE":0,"CLASSIFICATION_TYPE":"U","NORAD_CAT_ID":67964,"ELEMENT_SET_NO":999,"REV_AT_EPOCH":457,"BSTAR":-0.027354469,"MEAN_MOTION_DOT":-0.02353655,"MEAN_MOTION_DDOT":0}]
